{
  "type": "FeatureCollection",
  "features": [
    {
      "type": "Feature",
      "properties": {
        "norad_id": 34389,
        "name": "COSMOS 2251 DEB",
        "group": "cosmos-2251-debris",
        "lat": -64.04386678142308,
        "lon": 119.48328493278825,
        "alt_km": 772.8216828984141,
        "timestamp": "2025-12-05T09:41:19.526514+00:00",
        "meta_object_name": "COSMOS 2251 DEB",
        "meta_object_id": "1993-036QE",
        "meta_epoch": "2025-12-04T04:47:38.941728",
        "meta_mean_motion": 14.41496532,
        "meta_eccentricity": 0.00284997,
        "meta_inclination": 74.0189,
        "meta_ra_of_asc_node": 265.6493,
        "meta_arg_of_pericenter": 19.5826,
        "meta_mean_anomaly": 104.6989,
        "meta_ephemeris_type": 0,
        "meta_classification_type": "U",
        "meta_norad_cat_id": 34389,
        "meta_element_set_no": 999,
        "meta_rev_at_epoch": 87889,
        "meta_bstar": 0.00076934723,
        "meta_mean_motion_dot": 2.484e-05,
        "meta_mean_motion_ddot": 0,
        "tle_line1": "1 34389U 93036QE  25338.19975627  .00002484  00000+0  76935-3 0  9995",
        "tle_line2": "2 34389  74.0189 265.6493 0028499  19.5826 104.6989 14.41496532878892"
      },
      "geometry": {
        "type": "Point",
        "coordinates": [
          119.48328493278825,
          -64.04386678142308
        ]
      }
    },
    {
      "type": "Feature",
      "properties": {
        "norad_id": 34396,
        "name": "COSMOS 2251 DEB",
        "group": "cosmos-2251-debris",
        "lat": 28.589470529209695,
        "lon": 147.33801275508205,
        "alt_km": 650.8107171349684,
        "timestamp": "2025-12-05T09:41:19.526525+00:00",
        "meta_object_name": "COSMOS 2251 DEB",
        "meta_object_id": "1993-036QM",
        "meta_epoch": "2025-12-04T12:39:41.449248",
        "meta_mean_motion": 14.7405114,
        "meta_eccentricity": 0.0007299,
        "meta_inclination": 74.0277,
        "meta_ra_of_asc_node": 140.0678,
        "meta_arg_of_pericenter": 182.7859,
        "meta_mean_anomaly": 239.7557,
        "meta_ephemeris_type": 0,
        "meta_classification_type": "U",
        "meta_norad_cat_id": 34396,
        "meta_element_set_no": 999,
        "meta_rev_at_epoch": 88225,
        "meta_bstar": 0.005398,
        "meta_mean_motion_dot": 0.00035702,
        "meta_mean_motion_ddot": 0,
        "tle_line1": "1 34396U 93036QM  25338.52756307  .00035702  00000+0  53980-2 0  9995",
        "tle_line2": "2 34396  74.0277 140.0678 0007299 182.7859 239.7557 14.74051140882257"
      },
      "geometry": {
        "type": "Point",
        "coordinates": [
          147.33801275508205,
          28.589470529209695
        ]
      }
    },
    {
      "type": "Feature",
      "properties": {
        "norad_id": 34400,
        "name": "COSMOS 2251 DEB",
        "group": "cosmos-2251-debris",
        "lat": 39.800814413847,
        "lon": -154.30069714379937,
        "alt_km": 417.70817927096414,
        "timestamp": "2025-12-05T09:41:19.526536+00:00",
        "meta_object_name": "COSMOS 2251 DEB",
        "meta_object_id": "1993-036QR",
        "meta_epoch": "2025-12-04T14:29:50.182656",
        "meta_mean_motion": 15.49096832,
        "meta_eccentricity": 0.0007337,
        "meta_inclination": 73.9687,
        "meta_ra_of_asc_node": 41.3199,
        "meta_arg_of_pericenter": 269.7907,
        "meta_mean_anomaly": 90.2464,
        "meta_ephemeris_type": 0,
        "meta_classification_type": "U",
        "meta_norad_cat_id": 34400,
        "meta_element_set_no": 999,
        "meta_rev_at_epoch": 89848,
        "meta_bstar": 0.0058291,
        "meta_mean_motion_dot": 0.00330642,
        "meta_mean_motion_ddot": 0,
        "tle_line1": "1 34400U 93036QR  25338.60405304  .00330642  00000+0  58291-2 0  9999",
        "tle_line2": "2 34400  73.9687  41.3199 0007337 269.7907  90.2464 15.49096832898489"
      },
      "geometry": {
        "type": "Point",
        "coordinates": [
          -154.30069714379937,
          39.800814413847
        ]
      }
    },
    {
      "type": "Feature",
      "properties": {
        "norad_id": 34409,
        "name": "COSMOS 2251 DEB",
        "group": "cosmos-2251-debris",
        "lat": -11.023318392940098,
        "lon": -42.419648524115125,
        "alt_km": 666.037349230468,
        "timestamp": "2025-12-05T09:41:19.526546+00:00",
        "meta_object_name": "COSMOS 2251 DEB",
        "meta_object_id": "1993-036RA",
        "meta_epoch": "2025-12-04T09:35:27.039264",
        "meta_mean_motion": 14.57996004,
        "meta_eccentricity": 0.0079484,
        "meta_inclination": 74.0627,
        "meta_ra_of_asc_node": 322.6775,
        "meta_arg_of_pericenter": 39.2773,
        "meta_mean_anomaly": 82.0086,
        "meta_ephemeris_type": 0,
        "meta_classification_type": "U",
        "meta_norad_cat_id": 34409,
        "meta_element_set_no": 999,
        "meta_rev_at_epoch": 89071,
        "meta_bstar": 0.00044112,
        "meta_mean_motion_dot": 2.086e-05,
        "meta_mean_motion_ddot": 0,
        "tle_line1": "1 34409U 93036RA  25338.39961851  .00002086  00000+0  44112-3 0  9994",
        "tle_line2": "2 34409  74.0627 322.6775 0079484  39.2773  82.0086 14.57996004890717"
      },
      "geometry": {
        "type": "Point",
        "coordinates": [
          -42.419648524115125,
          -11.023318392940098
        ]
      }
    },
    {
      "type": "Feature",
      "properties": {
        "norad_id": 34410,
        "name": "COSMOS 2251 DEB",
        "group": "cosmos-2251-debris",
        "lat": -51.58214305639744,
        "lon": 118.9544392742917,
        "alt_km": 525.1945793605491,
        "timestamp": "2025-12-05T09:41:19.526557+00:00",
        "meta_object_name": "COSMOS 2251 DEB",
        "meta_object_id": "1993-036RB",
        "meta_epoch": "2025-12-03T22:08:19.253184",
        "meta_mean_motion": 15.17562106,
        "meta_eccentricity": 0.0020723,
        "meta_inclination": 73.7392,
        "meta_ra_of_asc_node": 280.509,
        "meta_arg_of_pericenter": 121.9342,
        "meta_mean_anomaly": 302.742,
        "meta_ephemeris_type": 0,
        "meta_classification_type": "U",
        "meta_norad_cat_id": 34410,
        "meta_element_set_no": 999,
        "meta_rev_at_epoch": 89640,
        "meta_bstar": 0.004684,
        "meta_mean_motion_dot": 0.00095812,
        "meta_mean_motion_ddot": 0,
        "tle_line1": "1 34410U 93036RB  25337.92244506  .00095812  00000+0  46840-2 0  9993",
        "tle_line2": "2 34410  73.7392 280.5090 0020723 121.9342 302.7420 15.17562106896404"
      },
      "geometry": {
        "type": "Point",
        "coordinates": [
          118.9544392742917,
          -51.58214305639744
        ]
      }
    },
    {
      "type": "Feature",
      "properties": {
        "norad_id": 34412,
        "name": "COSMOS 2251 DEB",
        "group": "cosmos-2251-debris",
        "lat": 48.07352116032568,
        "lon": 139.70713278878415,
        "alt_km": 650.7527966607358,
        "timestamp": "2025-12-05T09:41:19.526568+00:00",
        "meta_object_name": "COSMOS 2251 DEB",
        "meta_object_id": "1993-036RD",
        "meta_epoch": "2025-12-03T10:39:06.052320",
        "meta_mean_motion": 14.46988265,
        "meta_eccentricity": 0.01871303,
        "meta_inclination": 73.9477,
        "meta_ra_of_asc_node": 342.0894,
        "meta_arg_of_pericenter": 79.4118,
        "meta_mean_anomaly": 282.8057,
        "meta_ephemeris_type": 0,
        "meta_classification_type": "U",
        "meta_norad_cat_id": 34412,
        "meta_element_set_no": 999,
        "meta_rev_at_epoch": 87516,
        "meta_bstar": 0.0011167847,
        "meta_mean_motion_dot": 5.031e-05,
        "meta_mean_motion_ddot": 0,
        "tle_line1": "1 34412U 93036RD  25337.44382005  .00005031  00000+0  11168-2 0  9998",
        "tle_line2": "2 34412  73.9477 342.0894 0187130  79.4118 282.8057 14.46988265875165"
      },
      "geometry": {
        "type": "Point",
        "coordinates": [
          139.70713278878415,
          48.07352116032568
        ]
      }
    },
    {
      "type": "Feature",
      "properties": {
        "norad_id": 34413,
        "name": "COSMOS 2251 DEB",
        "group": "cosmos-2251-debris",
        "lat": 14.592463127087973,
        "lon": -77.52454693965007,
        "alt_km": 734.1226837086206,
        "timestamp": "2025-12-05T09:41:19.526579+00:00",
        "meta_object_name": "COSMOS 2251 DEB",
        "meta_object_id": "1993-036RE",
        "meta_epoch": "2025-12-04T15:25:18.549120",
        "meta_mean_motion": 14.28988715,
        "meta_eccentricity": 0.0090693,
        "meta_inclination": 74.0316,
        "meta_ra_of_asc_node": 279.5819,
        "meta_arg_of_pericenter": 357.5545,
        "meta_mean_anomaly": 63.4609,
        "meta_ephemeris_type": 0,
        "meta_classification_type": "U",
        "meta_norad_cat_id": 34413,
        "meta_element_set_no": 999,
        "meta_rev_at_epoch": 87015,
        "meta_bstar": 0.0038228,
        "meta_mean_motion_dot": 0.00010095,
        "meta_mean_motion_ddot": 0,
        "tle_line1": "1 34413U 93036RE  25338.64257580  .00010095  00000+0  38228-2 0  9993",
        "tle_line2": "2 34413  74.0316 279.5819 0090693 357.5545  63.4609 14.28988715870152"
      },
      "geometry": {
        "type": "Point",
        "coordinates": [
          -77.52454693965007,
          14.592463127087973
        ]
      }
    }
  ]
}